NORAD_CAT_ID,OBJECT_NAME,OBJECT_TYPE,EPOCH,MEAN_MOTION,ECCENTRICITY,INCLINATION,RA_OF_ASC_NODE,ARG_OF_PERICENTER,MEAN_ANOMALY,BSTAR,MEAN_MOTION_DOT,MEAN_MOTION_DDOT,TLE_LINE0,TLE_LINE1,TLE_LINE2,SEMIMAJOR_AXIS,PERIOD,APOGEE,PERIGEE,DECAYED
54002.0,STARLINK-5109,PAYLOAD,2024-06-25 01:51:59,15.08835949,0.0001254,53.2173,118.8707,84.4168,275.6967,2.2741e-05,7.4e-07,0.0,0 STARLINK-5109,1 54002U 22125AQ  24177.07776754  .00000074  00000-0  22741-4 0  9998,2 54002  53.2173 118.8707 0001254  84.4168 275.6967 15.08835949 95614,6917.893,95.438,540.625,538.89,0.0
54002.0,STARLINK-5109,PAYLOAD,2024-06-26 03:18:08,15.08843343,0.0001366,53.2173,114.1098,73.1603,286.9539,0.00013873,1.921e-05,0.0,0 STARLINK-5109,1 54002U 22125AQ  24178.13760038  .00001921  00000-0  13873-3 0  9991,2 54002  53.2173 114.1098 0001366  73.1603 286.9539 15.08843343 95829,6917.87,95.437,540.68,538.79,0.0
54002.0,STARLINK-5109,PAYLOAD,2024-06-27 03:08:56,15.08841705,0.0001367,53.2172,109.6508,87.2396,272.8752,3.6066e-05,2.86e-06,0.0,0 STARLINK-5109,1 54002U 22125AQ  24179.13120553  .00000286  00000-0  36066-4 0  9997,2 54002  53.2172 109.6508 0001367  87.2396 272.8752 15.08841705 95976,6917.875,95.437,540.686,538.795,0.0
54002.0,STARLINK-5109,PAYLOAD,2024-06-27 12:41:14,15.08849352,0.0001287,53.2175,107.8631,121.2406,238.8713,9.9722e-05,1.3e-05,0.0,0 STARLINK-5109,1 54002U 22125AQ  24179.52863537  .00001300  00000-0  99722-4 0  9992,2 54002  53.2175 107.8631 0001287 121.2406 238.8713 15.08849352 96031,6917.852,95.437,540.607,538.826,0.0
54002.0,STARLINK-5109,PAYLOAD,2024-06-28 01:24:20,15.08833354,0.0001245,53.2165,105.4877,105.8918,254.2211,-4.0195e-05,-9.27e-06,0.0,0 STARLINK-5109,1 54002U 22125AQ  24180.05857064 -.00000927  00000-0 -40195-4 0  9996,2 54002  53.2165 105.4877 0001245 105.8918 254.2211 15.08833354 96115,6917.901,95.438,540.627,538.904,0.0
54002.0,STARLINK-5109,PAYLOAD,2024-06-28 12:32:01,15.08850408,0.0001249,53.218,103.4061,97.7479,262.3655,0.00015692,2.211e-05,0.0,0 STARLINK-5109,1 54002U 22125AQ  24180.52223471  .00002211  00000-0  15692-3 0  9996,2 54002  53.2180 103.4061 0001249  97.7479 262.3655 15.08850408 96188,6917.849,95.437,540.578,538.85,0.0
54002.0,STARLINK-5109,PAYLOAD,2024-06-28 22:04:20,15.08840755,0.0001325,53.2174,101.6204,107.5427,252.571,1.1634e-05,-1.03e-06,0.0,0 STARLINK-5109,1 54002U 22125AQ  24180.91968370 -.00000103  00000-0  11634-4 0  9995,2 54002  53.2174 101.6204 0001325 107.5427 252.5710 15.08840755 96196,6917.878,95.438,540.66,538.826,0.0
54002.0,STARLINK-5109,PAYLOAD,2024-06-29 04:25:52,15.088511,0.000127,53.2174,100.4314,97.0958,263.0178,0.00010603,1.4e-05,0.0,0 STARLINK-5109,1 54002U 22125AQ  24181.18463570  .00001400  00000-0  10603-3 0  9991,2 54002  53.2174 100.4314 0001270  97.0958 263.0178 15.08851100 96287,6917.846,95.437,540.59,538.833,0.0
54002.0,STARLINK-5109,PAYLOAD,2024-06-29 18:44:22,15.08829379,0.0001375,53.2157,97.7567,97.0495,263.0653,9.0591e-05,1.154e-05,0.0,0 STARLINK-5109,1 54002U 22125AQ  24181.78081157  .00001154  00000-0  90591-4 0  9995,2 54002  53.2157  97.7567 0001375  97.0495 263.0653 15.08829379 96379,6917.913,95.438,540.729,538.827,0.0
54002.0,STARLINK-5109,PAYLOAD,2024-06-29 21:55:09,15.08819454,0.0001268,53.2172,97.1594,103.2244,256.8889,-2.8933e-06,-3.34e-06,0.0,0 STARLINK-5109,1 54002U 22125AQ  24181.91330229 -.00000334  00000-0 -28933-5 0  9990,2 54002  53.2172  97.1594 0001268 103.2244 256.8889 15.08819454 96344,6917.943,95.439,540.685,538.931,0.0
54002.0,STARLINK-5109,PAYLOAD,2024-06-30 04:16:41,15.08824159,0.0001035,53.2152,95.9757,87.6828,272.4283,-7.0378e-05,-1.407e-05,0.0,0 STARLINK-5109,1 54002U 22125AQ  24182.17825777 -.00001407  00000-0 -70378-4 0  9997,2 54002  53.2152  95.9757 0001035  87.6828 272.4283 15.08824159 96434,6917.929,95.439,540.51,539.078,0.0
54002.0,STARLINK-5109,PAYLOAD,2024-06-30 18:35:09,15.0883178,0.0001318,53.2159,93.2909,124.9885,235.1231,5.7978e-05,6.35e-06,0.0,0 STARLINK-5109,1 54002U 22125AQ  24182.77441497  .00000635  00000-0  57978-4 0  9997,2 54002  53.2159  93.2909 0001318 124.9885 235.1231 15.08831780 96520,6917.906,95.438,540.682,538.859,0.0
54002.0,STARLINK-5109,PAYLOAD,2024-06-30 21:45:55,15.08835802,0.0001024,53.2151,92.7054,81.6297,278.4811,0.00019325,2.789e-05,0.0,0 STARLINK-5109,1 54002U 22125AQ  24182.90689575  .00002789  00000-0  19325-3 0  9998,2 54002  53.2151  92.7054 0001024  81.6297 278.4811 15.08835802 96496,6917.893,95.438,540.467,539.05,0.0
54002.0,STARLINK-5109,PAYLOAD,2024-07-01 04:07:27,15.08853945,0.0001203,53.2158,91.5131,98.6538,261.459,0.00047466,7.277e-05,0.0,0 STARLINK-5109,1 54002U 22125AQ  24183.17184907  .00007277  00000-0  47466-3 0  9991,2 54002  53.2158  91.5131 0001203  98.6538 261.4590 15.08853945 96585,6917.838,95.437,540.535,538.871,0.0
54002.0,STARLINK-5109,PAYLOAD,2024-07-01 10:28:59,15.088696,0.0001307,53.2168,90.3248,105.9327,254.1809,0.00098377,0.00015416,0.0,0 STARLINK-5109,1 54002U 22125AQ  24183.43680506  .00015416  00000-0  98377-3 0  9997,2 54002  53.2168  90.3248 0001307 105.9327 254.1809 15.08869600 96571,6917.79,95.436,540.559,538.751,0.0
54002.0,STARLINK-5109,PAYLOAD,2024-07-01 21:36:42,15.08857449,0.0001566,53.2161,88.2424,116.0042,244.1111,0.00035921,5.436e-05,0.0,0 STARLINK-5109,1 54002U 22125AQ  24183.90048797  .00005436  00000-0  35921-3 0  9996,2 54002  53.2161  88.2424 0001566 116.0042 244.1111 15.08857449 96641,6917.827,95.436,540.775,538.609,0.0
54002.0,STARLINK-5109,PAYLOAD,2024-07-02 02:22:51,15.08849867,0.0001051,53.2158,87.3513,81.0735,279.0376,0.0011862,0.00018646,0.0,0 STARLINK-5109,1 54002U 22125AQ  24184.09921059  .00018646  00000-0  11862-2 0  9992,2 54002  53.2158  87.3513 0001051  81.0735 279.0376 15.08849867 96729,6917.85,95.437,540.442,538.988,0.0
54002.0,STARLINK-5109,PAYLOAD,2024-07-02 10:19:47,15.08836222,0.0001197,53.2162,85.8649,86.8815,273.2314,0.0011396,0.00017893,0.0,0 STARLINK-5109,1 54002U 22125AQ  24184.43041197  .00017893  00000-0  11396-2 0  9991,2 54002  53.2162  85.8649 0001197  86.8815 273.2314 15.08836222 96774,6917.892,95.438,540.585,538.929,0.0
54002.0,STARLINK-5109,PAYLOAD,2024-07-02 21:27:29,15.08835501,0.0001094,53.2165,83.7834,99.3371,260.7745,0.0010397,0.00016296,0.0,0 STARLINK-5109,1 54002U 22125AQ  24184.89409572  .00016296  00000-0  10397-2 0  9992,2 54002  53.2165  83.7834 0001094  99.3371 260.7745 15.08835501 96792,6917.894,95.438,540.516,539.002,0.0
54002.0,STARLINK-5109,PAYLOAD,2024-07-03 02:13:39,15.08847316,0.0001156,53.2164,82.8915,97.0805,263.0318,0.0016862,0.00026655,0.0,0 STARLINK-5109,1 54002U 22125AQ  24185.09281530  .00026655  00000-0  16862-2 0  9990,2 54002  53.2164  82.8915 0001156  97.0805 263.0318 15.08847316 96875,6917.858,95.437,540.523,538.923,0.0
54002.0,STARLINK-5109,PAYLOAD,2024-07-03 21:18:16,15.08846052,0.0001117,53.2169,79.3214,90.9311,269.1809,0.00084553,0.00013196,0.0,0 STARLINK-5109,1 54002U 22125AQ  24185.88769360  .00013196  00000-0  84553-3 0  9998,2 54002  53.2169  79.3214 0001117  90.9311 269.1809 15.08846052 96940,6917.862,95.437,540.5,538.954,0.0
54002.0,STARLINK-5109,PAYLOAD,2024-07-04 02:04:26,15.08845798,0.0001216,53.2155,78.428,87.143,272.9701,0.0015189,0.00023972,0.0,0 STARLINK-5109,1 54002U 22125AQ  24186.08641492  .00023972  00000-0  15189-2 0  9997,2 54002  53.2155  78.4280 0001216  87.1430 272.9701 15.08845798 97027,6917.863,95.437,540.569,538.886,0.0
54002.0,STARLINK-5109,PAYLOAD,2024-07-04 10:01:21,15.08859317,0.0001266,53.2156,76.9411,81.9962,278.1174,0.001363,0.00021482,0.0,0 STARLINK-5109,1 54002U 22125AQ  24186.41761209  .00021482  00000-0  13630-2 0  9996,2 54002  53.2156  76.9411 0001266  81.9962 278.1174 15.08859317 97028,6917.821,95.436,540.562,538.811,0.0
54002.0,STARLINK-5109,PAYLOAD,2024-07-04 21:09:03,15.08850172,0.0001338,53.2169,74.8596,93.2545,266.8601,0.0013501,0.0002127,0.0,0 STARLINK-5109,1 54002U 22125AQ  24186.88129355  .00021270  00000-0  13501-2 0  9999,2 54002  53.2169  74.8596 0001338  93.2545 266.8601 15.08850172 97148,6917.849,95.437,540.64,538.789,0.0
54002.0,STARLINK-5109,PAYLOAD,2024-07-04 22:44:26,15.08851859,0.0001215,53.2163,74.565,84.5167,275.5964,0.0013925,0.0002195,0.0,0 STARLINK-5109,1 54002U 22125AQ  24186.94753345  .00021950  00000-0  13925-2 0  9993,2 54002  53.2163  74.5650 0001215  84.5167 275.5964 15.08851859 97105,6917.844,95.437,540.55,538.869,0.0
54002.0,STARLINK-5109,PAYLOAD,2024-07-05 09:52:08,15.08861683,0.0001253,53.2161,72.4833,83.3166,276.7969,0.0011759,0.00018487,0.0,0 STARLINK-5109,1 54002U 22125AQ  24187.41120914  .00018487  00000-0  11759-2 0  9990,2 54002  53.2161  72.4833 0001253  83.3166 276.7969 15.08861683 97228,6917.814,95.436,540.546,538.812,0.0
54002.0,STARLINK-5109,PAYLOAD,2024-07-05 22:35:13,15.08841874,0.0001305,53.2169,70.1041,100.292,259.8219,0.0010935,0.00017159,0.0,0 STARLINK-5109,1 54002U 22125AQ  24187.94113378  .00017159  00000-0  10935-2 0  9994,2 54002  53.2169  70.1041 0001305 100.2920 259.8219 15.08841874 97250,6917.875,95.437,540.642,538.837,0.0
54002.0,STARLINK-5109,PAYLOAD,2024-07-06 09:42:55,15.08846636,0.0001283,53.2164,68.0221,102.1544,257.9592,0.001016,0.00015922,0.0,0 STARLINK-5109,1 54002U 22125AQ  24188.40481385  .00015922  00000-0  10160-2 0  9998,2 54002  53.2164  68.0221 0001283 102.1544 257.9592 15.08846636 97376,6917.86,95.437,540.613,538.838,0.0
54002.0,STARLINK-5109,PAYLOAD,2024-07-06 20:50:38,15.08835332,0.0001796,53.219,65.9384,113.105,247.0132,0.00017187,2.448e-05,0.0,0 STARLINK-5109,1 54002U 22125AQ  24188.86849739  .00002448  00000-0  17187-3 0  9995,2 54002  53.2190  65.9384 0001796 113.1050 247.0132 15.08835332 97443,6917.895,95.438,541.002,538.517,0.0
54002.0,STARLINK-5109,PAYLOAD,2024-07-06 22:26:01,15.08835747,0.0001393,53.2174,65.6447,88.9303,271.1849,4.3944e-05,4.11e-06,0.0,0 STARLINK-5109,1 54002U 22125AQ  24188.93473737  .00000411  00000-0  43944-4 0  9993,2 54002  53.2174  65.6447 0001393  88.9303 271.1849 15.08835747 97404,6917.893,95.438,540.722,538.795,0.0
